[Satellite]
VERSION=1.1
NAME=HYLAS 2
NICKNAME=HYLAS 2
TLE1=1 38741U 12043B   15052.23991828  .00000130  00000-0  10000-3 0  9996
TLE2=2 38741   0.0054 129.8791 0001779 209.4424 288.8301  1.00271888  9396
